{
  "norad_id": 55832,
  "name": "ONEWEB-0673",
  "history": [
    {
      "epoch": "2026-03-28T21:39:14.006016Z",
      "apogee_km": 1187.0976756944265,
      "perigee_km": 1184.4365429506852,
      "latitude_deg": -7.59491814118257e-09,
      "longitude_deg": 169.8439119870151,
      "height_km": 1188.6010707595635,
      "semi_major_axis_km": 7563.904109322555,
      "eccentricity": 0.00017591,
      "inclination_deg": 87.9198,
      "raan_deg": 320.9683,
      "arg_perigee_deg": 87.2117,
      "mean_anomaly_deg": 272.9217,
      "mean_motion_rev_day": 13.19725901
    },
    {
      "epoch": "2026-03-29T03:06:45.724896Z",
      "apogee_km": 1187.1014240452714,
      "perigee_km": 1184.4328786606748,
      "latitude_deg": 4.1021724873457285e-05,
      "longitude_deg": 87.6922661041369,
      "height_km": 1188.605108898418,
      "semi_major_axis_km": 7563.904151352973,
      "eccentricity": 0.0001764,
      "inclination_deg": 87.9197,
      "raan_deg": 320.923,
      "arg_perigee_deg": 87.3919,
      "mean_anomaly_deg": 272.7416,
      "mean_motion_rev_day": 13.1972589
    },
    {
      "epoch": "2026-03-30T04:35:13.663968Z",
      "apogee_km": 1187.0904291987981,
      "perigee_km": 1184.4415503717755,
      "latitude_deg": -1.0440396067097988e-05,
      "longitude_deg": 64.31835454411664,
      "height_km": 1188.6044261328782,
      "semi_major_axis_km": 7563.902989785286,
      "eccentricity": 0.0001751,
      "inclination_deg": 87.9194,
      "raan_deg": 320.7117,
      "arg_perigee_deg": 87.392,
      "mean_anomaly_deg": 272.7413,
      "mean_motion_rev_day": 13.19726194
    },
    {
      "epoch": "2026-03-30T13:41:06.525024Z",
      "apogee_km": 1187.0905070032668,
      "perigee_km": 1184.4448044327883,
      "latitude_deg": 1.4979209074459412e-05,
      "longitude_deg": -72.60094077869553,
      "height_km": 1188.6044812986702,
      "semi_major_axis_km": 7563.904655718027,
      "eccentricity": 0.00017489,
      "inclination_deg": 87.9193,
      "raan_deg": 320.6363,
      "arg_perigee_deg": 87.3191,
      "mean_anomaly_deg": 272.8142,
      "mean_motion_rev_day": 13.19725758
    }
  ]
}